{
  "norad_id": 60401,
  "name": "STARLINK-11232 [DTC]",
  "history": [
    {
      "epoch": "2026-03-28T03:14:53.422656Z",
      "apogee_km": 360.61577049449807,
      "perigee_km": 359.006883193013,
      "latitude_deg": 3.8228600384639425e-05,
      "longitude_deg": 120.7799007282816,
      "height_km": 360.762539822475,
      "semi_major_axis_km": 6737.948326843755,
      "eccentricity": 0.00011939,
      "inclination_deg": 53.1597,
      "raan_deg": 355.0626,
      "arg_perigee_deg": 92.6883,
      "mean_anomaly_deg": 267.4272,
      "mean_motion_rev_day": 15.69680445
    },
    {
      "epoch": "2026-03-30T02:37:05.644704Z",
      "apogee_km": 360.55772810242615,
      "perigee_km": 359.0080065329421,
      "latitude_deg": 3.883801671212793e-06,
      "longitude_deg": 118.55503093337505,
      "height_km": 360.32031466308877,
      "semi_major_axis_km": 6737.919867317683,
      "eccentricity": 0.000115,
      "inclination_deg": 53.1586,
      "raan_deg": 345.3341,
      "arg_perigee_deg": 60.9557,
      "mean_anomaly_deg": 299.1576,
      "mean_motion_rev_day": 15.6969039
    }
  ]
}